[{"OBJECT_NAME":"ZACUBE-1 (TSHEPISOSAT)","OBJECT_ID":"2013-066B","EPOCH":"2026-03-03T20:39:41.675328","MEAN_MOTION":15.00250727,"ECCENTRICITY":0.0041678,"INCLINATION":97.8183,"RA_OF_ASC_NODE":24.6561,"ARG_OF_PERICENTER":239.6691,"MEAN_ANOMALY":120.0407,"EPHEMERIS_TYPE":0,"CLASSIFICATION_TYPE":"U","NORAD_CAT_ID":39417,"ELEMENT_SET_NO":999,"REV_AT_EPOCH":66493,"BSTAR":0.00054155,"MEAN_MOTION_DOT":6.842e-5,"MEAN_MOTION_DDOT":0},{"OBJECT_NAME":"WNISAT-1","OBJECT_ID":"2013-066H","EPOCH":"2026-03-03T15:49:54.427008","MEAN_MOTION":14.57843922,"ECCENTRICITY":0.0163165,"INCLINATION":97.7026,"RA_OF_ASC_NODE":219.4088,"ARG_OF_PERICENTER":203.8835,"MEAN_ANOMALY":155.4736,"EPHEMERIS_TYPE":0,"CLASSIFICATION_TYPE":"U","NORAD_CAT_ID":39423,"ELEMENT_SET_NO":999,"REV_AT_EPOCH":65135,"BSTAR":0.00044881,"MEAN_MOTION_DOT":2.419e-5,"MEAN_MOTION_DDOT":0},{"OBJECT_NAME":"TRITON-1","OBJECT_ID":"2013-066M","EPOCH":"2026-03-03T20:40:20.549280","MEAN_MOTION":14.81159042,"ECCENTRICITY":0.0089697,"INCLINATION":97.8306,"RA_OF_ASC_NODE":335.0865,"ARG_OF_PERICENTER":216.8576,"MEAN_ANOMALY":142.645,"EPHEMERIS_TYPE":0,"CLASSIFICATION_TYPE":"U","NORAD_CAT_ID":39427,"ELEMENT_SET_NO":999,"REV_AT_EPOCH":65849,"BSTAR":0.00045914,"MEAN_MOTION_DOT":3.77e-5,"MEAN_MOTION_DDOT":0},{"OBJECT_NAME":"GOMX-1","OBJECT_ID":"2013-066Q","EPOCH":"2026-03-03T19:56:50.319744","MEAN_MOTION":14.69069925,"ECCENTRICITY":0.0130614,"INCLINATION":97.657,"RA_OF_ASC_NODE":269.9016,"ARG_OF_PERICENTER":56.1579,"MEAN_ANOMALY":305.1979,"EPHEMERIS_TYPE":0,"CLASSIFICATION_TYPE":"U","NORAD_CAT_ID":39430,"ELEMENT_SET_NO":999,"REV_AT_EPOCH":65444,"BSTAR":0.00034457,"MEAN_MOTION_DOT":2.255e-5,"MEAN_MOTION_DDOT":0},{"OBJECT_NAME":"CUBEBUG-2 (LO-74)","OBJECT_ID":"2013-066AA","EPOCH":"2026-03-03T20:47:50.197344","MEAN_MOTION":14.92865511,"ECCENTRICITY":0.0059389,"INCLINATION":97.8812,"RA_OF_ASC_NODE":11.5305,"ARG_OF_PERICENTER":18.3107,"MEAN_ANOMALY":342.0232,"EPHEMERIS_TYPE":0,"CLASSIFICATION_TYPE":"U","NORAD_CAT_ID":39440,"ELEMENT_SET_NO":999,"REV_AT_EPOCH":66127,"BSTAR":0.00083132,"MEAN_MOTION_DOT":8.858e-5,"MEAN_MOTION_DDOT":0},{"OBJECT_NAME":"NEE-02 KRYSAOR","OBJECT_ID":"2013-066AB","EPOCH":"2026-03-03T18:57:11.571264","MEAN_MOTION":14.86113892,"ECCENTRICITY":0.0068182,"INCLINATION":97.8815,"RA_OF_ASC_NODE":2.8437,"ARG_OF_PERICENTER":56.0162,"MEAN_ANOMALY":304.7507,"EPHEMERIS_TYPE":0,"CLASSIFICATION_TYPE":"U","NORAD_CAT_ID":39441,"ELEMENT_SET_NO":999,"REV_AT_EPOCH":66054,"BSTAR":0.00047037,"MEAN_MOTION_DOT":4.242e-5,"MEAN_MOTION_DDOT":0},{"OBJECT_NAME":"FUNCUBE-1 (AO-73)","OBJECT_ID":"2013-066AE","EPOCH":"2026-03-03T08:04:48.099648","MEAN_MOTION":15.07759862,"ECCENTRICITY":0.00366102,"INCLINATION":97.8168,"RA_OF_ASC_NODE":31.7675,"ARG_OF_PERICENTER":201.255,"MEAN_ANOMALY":158.7158,"EPHEMERIS_TYPE":0,"CLASSIFICATION_TYPE":"U","NORAD_CAT_ID":39444,"ELEMENT_SET_NO":999,"REV_AT_EPOCH":66370,"BSTAR":0.00069419495,"MEAN_MOTION_DOT":0.00010715,"MEAN_MOTION_DDOT":0},{"OBJECT_NAME":"UWE-3","OBJECT_ID":"2013-066AG","EPOCH":"2026-03-03T20:15:47.094912","MEAN_MOTION":14.96096774,"ECCENTRICITY":0.0048814,"INCLINATION":97.8593,"RA_OF_ASC_NODE":18.3537,"ARG_OF_PERICENTER":312.6373,"MEAN_ANOMALY":47.0737,"EPHEMERIS_TYPE":0,"CLASSIFICATION_TYPE":"U","NORAD_CAT_ID":39446,"ELEMENT_SET_NO":999,"REV_AT_EPOCH":66182,"BSTAR":0.0006286,"MEAN_MOTION_DOT":7.18e-5,"MEAN_MOTION_DDOT":0},{"OBJECT_NAME":"BRITE-CA1 (TORONTO)","OBJECT_ID":"2014-033L","EPOCH":"2026-03-03T07:25:15.093408","MEAN_MOTION":14.72440643,"ECCENTRICITY":0.00776971,"INCLINATION":97.9556,"RA_OF_ASC_NODE":193.3093,"ARG_OF_PERICENTER":255.6268,"MEAN_ANOMALY":103.6306,"EPHEMERIS_TYPE":0,"CLASSIFICATION_TYPE":"U","NORAD_CAT_ID":40020,"ELEMENT_SET_NO":999,"REV_AT_EPOCH":62663,"BSTAR":0.00025975949,"MEAN_MOTION_DOT":1.673e-5,"MEAN_MOTION_DDOT":0},{"OBJECT_NAME":"DUCHIFAT-1","OBJECT_ID":"2014-033M","EPOCH":"2026-03-03T16:38:46.147488","MEAN_MOTION":15.48953119,"ECCENTRICITY":0.0006619,"INCLINATION":98.064,"RA_OF_ASC_NODE":108.4184,"ARG_OF_PERICENTER":100.7475,"MEAN_ANOMALY":259.452,"EPHEMERIS_TYPE":0,"CLASSIFICATION_TYPE":"U","NORAD_CAT_ID":40021,"ELEMENT_SET_NO":999,"REV_AT_EPOCH":63934,"BSTAR":0.0013196,"MEAN_MOTION_DOT":0.00071797,"MEAN_MOTION_DDOT":0},{"OBJECT_NAME":"NANOSATC-BR1","OBJECT_ID":"2014-033Q","EPOCH":"2026-03-03T15:07:50.308032","MEAN_MOTION":15.27839636,"ECCENTRICITY":0.000402,"INCLINATION":98.0837,"RA_OF_ASC_NODE":85.8912,"ARG_OF_PERICENTER":165.066,"MEAN_ANOMALY":195.0697,"EPHEMERIS_TYPE":0,"CLASSIFICATION_TYPE":"U","NORAD_CAT_ID":40024,"ELEMENT_SET_NO":999,"REV_AT_EPOCH":63784,"BSTAR":0.00087415,"MEAN_MOTION_DOT":0.00023736,"MEAN_MOTION_DDOT":0},{"OBJECT_NAME":"QB50P1","OBJECT_ID":"2014-033R","EPOCH":"2026-03-03T12:10:38.617824","MEAN_MOTION":15.16352684,"ECCENTRICITY":0.00076894,"INCLINATION":98.0997,"RA_OF_ASC_NODE":66.3728,"ARG_OF_PERICENTER":217.9822,"MEAN_ANOMALY":142.0868,"EPHEMERIS_TYPE":0,"CLASSIFICATION_TYPE":"U","NORAD_CAT_ID":40025,"ELEMENT_SET_NO":999,"REV_AT_EPOCH":63700,"BSTAR":0.00060375842,"MEAN_MOTION_DOT":0.00011655,"MEAN_MOTION_DDOT":0},{"OBJECT_NAME":"QB50P2","OBJECT_ID":"2014-033Y","EPOCH":"2026-03-03T18:42:42.479712","MEAN_MOTION":15.13530763,"ECCENTRICITY":0.0007915,"INCLINATION":98.0725,"RA_OF_ASC_NODE":53.2424,"ARG_OF_PERICENTER":160.453,"MEAN_ANOMALY":199.7005,"EPHEMERIS_TYPE":0,"CLASSIFICATION_TYPE":"U","NORAD_CAT_ID":40032,"ELEMENT_SET_NO":999,"REV_AT_EPOCH":63671,"BSTAR":0.00070463,"MEAN_MOTION_DOT":0.00012574,"MEAN_MOTION_DDOT":0},{"OBJECT_NAME":"PERSEUS-M2","OBJECT_ID":"2014-033AD","EPOCH":"2026-03-03T19:18:32.866848","MEAN_MOTION":14.95126582,"ECCENTRICITY":0.0010303,"INCLINATION":97.9861,"RA_OF_ASC_NODE":11.2998,"ARG_OF_PERICENTER":293.5273,"MEAN_ANOMALY":66.4864,"EPHEMERIS_TYPE":0,"CLASSIFICATION_TYPE":"U","NORAD_CAT_ID":40037,"ELEMENT_SET_NO":999,"REV_AT_EPOCH":63503,"BSTAR":0.00041793,"MEAN_MOTION_DOT":4.529e-5,"MEAN_MOTION_DDOT":0},{"OBJECT_NAME":"PERSEUS-M1","OBJECT_ID":"2014-033AF","EPOCH":"2026-03-03T18:50:29.231520","MEAN_MOTION":14.9521552,"ECCENTRICITY":0.0010002,"INCLINATION":97.9552,"RA_OF_ASC_NODE":5.2819,"ARG_OF_PERICENTER":290.8329,"MEAN_ANOMALY":69.182,"EPHEMERIS_TYPE":0,"CLASSIFICATION_TYPE":"U","NORAD_CAT_ID":40039,"ELEMENT_SET_NO":999,"REV_AT_EPOCH":63488,"BSTAR":0.00035462,"MEAN_MOTION_DOT":3.842e-5,"MEAN_MOTION_DDOT":0},{"OBJECT_NAME":"POLYITAN-1","OBJECT_ID":"2014-033AJ","EPOCH":"2026-03-03T12:34:49.528704","MEAN_MOTION":15.2922377,"ECCENTRICITY":0.0008872,"INCLINATION":98.1046,"RA_OF_ASC_NODE":79.0575,"ARG_OF_PERICENTER":145.7003,"MEAN_ANOMALY":214.481,"EPHEMERIS_TYPE":0,"CLASSIFICATION_TYPE":"U","NORAD_CAT_ID":40042,"ELEMENT_SET_NO":999,"REV_AT_EPOCH":63742,"BSTAR":0.00093821,"MEAN_MOTION_DOT":0.00026616,"MEAN_MOTION_DDOT":0},{"OBJECT_NAME":"TIGRISAT","OBJECT_ID":"2014-033AK","EPOCH":"2026-03-03T15:49:20.204832","MEAN_MOTION":14.8468903,"ECCENTRICITY":0.0050719,"INCLINATION":97.7658,"RA_OF_ASC_NODE":215.2119,"ARG_OF_PERICENTER":61.7673,"MEAN_ANOMALY":298.8649,"EPHEMERIS_TYPE":0,"CLASSIFICATION_TYPE":"U","NORAD_CAT_ID":40043,"ELEMENT_SET_NO":999,"REV_AT_EPOCH":62996,"BSTAR":0.00038381,"MEAN_MOTION_DOT":3.27e-5,"MEAN_MOTION_DDOT":0}]
