ZACUBE-1 (TSHEPISOSAT)  
1 39417U 13066B   26062.86089902  .00006842  00000+0  54155-3 0  9990
2 39417  97.8183  24.6561 0041678 239.6691 120.0407 15.00250727664939
WNISAT-1                
1 39423U 13066H   26062.65965772  .00002419  00000+0  44881-3 0  9993
2 39423  97.7026 219.4088 0163165 203.8835 155.4736 14.57843922651353
TRITON-1                
1 39427U 13066M   26062.86134895  .00003770  00000+0  45914-3 0  9993
2 39427  97.8306 335.0865 0089697 216.8576 142.6450 14.81159042658493
GOMX-1                  
1 39430U 13066Q   26062.83113796  .00002255  00000+0  34457-3 0  9998
2 39430  97.6570 269.9016 0130614  56.1579 305.1979 14.69069925654444
CUBEBUG-2 (LO-74)       
1 39440U 13066AA  26062.86655321  .00008858  00000+0  83132-3 0  9996
2 39440  97.8812  11.5305 0059389  18.3107 342.0232 14.92865511661276
NEE-02 KRYSAOR          
1 39441U 13066AB  26062.78971726  .00004242  00000+0  47037-3 0  9995
2 39441  97.8815   2.8437 0068182  56.0162 304.7507 14.86113892660540
FUNCUBE-1 (AO-73)       
1 39444U 13066AE  26062.33666782  .00010715  00000+0  69419-3 0  9992
2 39444  97.8168  31.7675 0036610 201.2550 158.7158 15.07759862663702
UWE-3                   
1 39446U 13066AG  26062.84429508  .00007180  00000+0  62860-3 0  9998
2 39446  97.8593  18.3537 0048814 312.6373  47.0737 14.96096774661820
BRITE-CA1 (TORONTO)     
1 40020U 14033L   26062.30920247  .00001673  00000+0  25976-3 0  9998
2 40020  97.9556 193.3093 0077697 255.6268 103.6306 14.72440643626634
DUCHIFAT-1              
1 40021U 14033M   26062.69358967  .00071797  00000+0  13196-2 0  9999
2 40021  98.0640 108.4184 0006619 100.7475 259.4520 15.48953119639346
NANOSATC-BR1            
1 40024U 14033Q   26062.63044338  .00023736  00000+0  87415-3 0  9996
2 40024  98.0837  85.8912 0004020 165.0660 195.0697 15.27839636637845
QB50P1                  
1 40025U 14033R   26062.50739141  .00011655  00000+0  60376-3 0  9990
2 40025  98.0997  66.3728 0007689 217.9822 142.0868 15.16352684637004
QB50P2                  
1 40032U 14033Y   26062.77965833  .00012574  00000+0  70463-3 0  9995
2 40032  98.0725  53.2424 0007915 160.4530 199.7005 15.13530763636711
PERSEUS-M2              
1 40037U 14033AD  26062.80454707  .00004529  00000+0  41793-3 0  9992
2 40037  97.9861  11.2998 0010303 293.5273  66.4864 14.95126582635038
PERSEUS-M1              
1 40039U 14033AF  26062.78506055  .00003842  00000+0  35462-3 0  9998
2 40039  97.9552   5.2819 0010002 290.8329  69.1820 14.95215520634885
POLYITAN-1              
1 40042U 14033AJ  26062.52418436  .00026616  00000+0  93821-3 0  9996
2 40042  98.1046  79.0575 0008872 145.7003 214.4810 15.29223770637428
TIGRISAT                
1 40043U 14033AK  26062.65926163  .00003270  00000+0  38381-3 0  9993
2 40043  97.7658 215.2119 0050719  61.7673 298.8649 14.84689030629969
